O3B MPOWER F1           
1 54755U 22174A   24244.25495632 -.00000032  00000+0  00000+0 0  9998
2 54755   0.0568 345.8437 0006631 167.8399 123.8439  5.00113758 32599
